NORAD_CAT_ID,OBJECT_NAME,OBJECT_TYPE,EPOCH,MEAN_MOTION,ECCENTRICITY,INCLINATION,RA_OF_ASC_NODE,ARG_OF_PERICENTER,MEAN_ANOMALY,BSTAR,MEAN_MOTION_DOT,MEAN_MOTION_DDOT,TLE_LINE0,TLE_LINE1,TLE_LINE2,SEMIMAJOR_AXIS,PERIOD,APOGEE,PERIGEE,DECAYED
49730.0,STARLINK-3249,PAYLOAD,2023-10-08 21:09:43,15.08864156,0.0001556,53.2161,162.3933,83.7892,276.3278,0.00063706,9.872e-05,0.0,0 STARLINK-3249,1 49730U 21115G   23281.88175453  .00009872  00000-0  63706-3 0  9991,2 49730  53.2161 162.3933 0001556  83.7892 276.3278 15.08864156102118,6917.807,95.436,540.748,538.595,0.0
49730.0,STARLINK-3249,PAYLOAD,2023-10-09 01:55:52,15.08877818,0.0001511,53.2162,161.5009,94.1378,265.9787,0.0010653,0.00016724,0.0,0 STARLINK-3249,1 49730U 21115G   23282.08046883  .00016724  00000-0  10653-2 0  9994,2 49730  53.2162 161.5009 0001511  94.1378 265.9787 15.08877818103254,6917.765,95.435,540.675,538.585,0.0
49730.0,STARLINK-3249,PAYLOAD,2023-10-09 21:00:30,15.08839475,0.0001416,53.2164,157.9332,95.2907,264.8246,2.7092e-05,1.43e-06,0.0,0 STARLINK-3249,1 49730U 21115G   23282.87535542  .00000143  00000-0  27092-4 0  9991,2 49730  53.2164 157.9332 0001416  95.2907 264.8246 15.08839475103376,6917.882,95.438,540.727,538.767,0.0
49730.0,STARLINK-3249,PAYLOAD,2023-10-09 22:35:53,15.08839042,0.0001366,53.2165,157.636,88.377,271.7379,0.00012857,1.759e-05,0.0,0 STARLINK-3249,1 49730U 21115G   23282.94159621  .00001759  00000-0  12857-3 0  9995,2 49730  53.2165 157.6360 0001366  88.3770 271.7379 15.08839042102272,6917.883,95.438,540.693,538.803,0.0
49730.0,STARLINK-3249,PAYLOAD,2023-10-10 20:51:18,15.08847398,0.0001429,53.2173,153.4734,74.2391,285.8759,0.00059736,9.234e-05,0.0,0 STARLINK-3249,1 49730U 21115G   23283.86895930  .00009234  00000-0  59736-3 0  9990,2 49730  53.2173 153.4734 0001429  74.2391 285.8759 15.08847398102410,6917.858,95.437,540.711,538.734,0.0
49730.0,STARLINK-3249,PAYLOAD,2023-10-11 01:37:27,15.08857494,0.0001441,53.2172,152.5799,69.6502,290.4645,0.00084699,0.00013224,0.0,0 STARLINK-3249,1 49730U 21115G   23284.06767656  .00013224  00000-0  84699-3 0  9996,2 49730  53.2172 152.5799 0001441  69.6502 290.4645 15.08857494103556,6917.827,95.436,540.689,538.695,0.0
49730.0,STARLINK-3249,PAYLOAD,2023-10-11 20:42:05,15.08836445,0.0001432,53.2171,149.0161,90.1319,269.9838,0.00011643,1.565e-05,0.0,0 STARLINK-3249,1 49730U 21115G   23284.86256449  .00001565  00000-0  11643-3 0  9991,2 49730  53.2171 149.0161 0001432  90.1319 269.9838 15.08836445103675,6917.891,95.438,540.747,538.766,0.0
49730.0,STARLINK-3249,PAYLOAD,2023-10-12 07:49:47,15.08844762,0.0001344,53.2166,146.9324,88.6993,271.4153,0.00042241,6.442e-05,0.0,0 STARLINK-3249,1 49730U 21115G   23285.32624342  .00006442  00000-0  42241-3 0  9991,2 49730  53.2166 146.9324 0001344  88.6993 271.4153 15.08844762102632,6917.866,95.437,540.661,538.801,0.0
49730.0,STARLINK-3249,PAYLOAD,2023-10-12 22:08:15,15.08848306,0.000138,53.2164,144.2563,89.5277,270.5874,0.00058322,9.008e-05,0.0,0 STARLINK-3249,1 49730U 21115G   23285.92240401  .00009008  00000-0  58322-3 0  9995,2 49730  53.2164 144.2563 0001380  89.5277 270.5874 15.08848306102729,6917.855,95.437,540.675,538.765,0.0
49730.0,STARLINK-3249,PAYLOAD,2023-10-13 07:40:34,15.08841772,0.000134,53.2158,142.4702,94.0209,266.0936,0.00024509,3.615e-05,0.0,0 STARLINK-3249,1 49730U 21115G   23286.31984354  .00003615  00000-0  24509-3 0  9999,2 49730  53.2158 142.4702 0001340  94.0209 266.0936 15.08841772103897,6917.875,95.437,540.667,538.813,0.0
49730.0,STARLINK-3249,PAYLOAD,2023-10-13 21:59:02,15.08853294,0.0001266,53.2157,139.7947,92.0185,268.0952,0.00038527,5.851e-05,0.0,0 STARLINK-3249,1 49730U 21115G   23286.91599995  .00005851  00000-0  38527-3 0  9997,2 49730  53.2157 139.7947 0001266  92.0185 268.0952 15.08853294102873,6917.84,95.437,540.581,538.829,0.0
49730.0,STARLINK-3249,PAYLOAD,2023-10-14 07:31:21,15.08843959,0.0001439,53.2152,138.0095,90.5373,269.5784,0.00018454,2.651e-05,0.0,0 STARLINK-3249,1 49730U 21115G   23287.31344310  .00002651  00000-0  18454-3 0  9993,2 49730  53.2152 138.0095 0001439  90.5373 269.5784 15.08843959102931,6917.868,95.437,540.729,538.738,0.0
49730.0,STARLINK-3249,PAYLOAD,2023-10-14 20:14:26,15.08842364,0.0001417,53.2155,135.628,103.5866,256.5283,9.8567e-05,1.281e-05,0.0,0 STARLINK-3249,1 49730U 21115G   23287.84336237  .00001281  00000-0  98567-4 0  9992,2 49730  53.2155 135.6280 0001417 103.5866 256.5283 15.08842364104123,6917.873,95.437,540.718,538.758,0.0
49730.0,STARLINK-3249,PAYLOAD,2023-10-15 07:22:08,15.08842055,0.0001299,53.2147,133.5497,94.4377,265.6764,0.00012453,1.695e-05,0.0,0 STARLINK-3249,1 49730U 21115G   23288.30704405  .00001695  00000-0  12453-3 0  9998,2 49730  53.2147 133.5497 0001299  94.4377 265.6764 15.08842055103080,6917.874,95.437,540.638,538.84,0.0
49730.0,STARLINK-3249,PAYLOAD,2023-10-15 20:05:13,15.08842084,0.000129,53.2145,131.171,97.2612,262.8527,0.00011393,1.526e-05,0.0,0 STARLINK-3249,1 49730U 21115G   23288.83696447  .00001526  00000-0  11393-3 0  9997,2 49730  53.2145 131.1710 0001290  97.2612 262.8527 15.08842084103161,6917.874,95.437,540.631,538.847,0.0
49730.0,STARLINK-3249,PAYLOAD,2023-10-16 07:12:55,15.0884051,0.0001298,53.2154,129.087,95.7948,264.3192,0.00011789,1.589e-05,0.0,0 STARLINK-3249,1 49730U 21115G   23289.30064548  .00001589  00000-0  11789-3 0  9999,2 49730  53.2154 129.0870 0001298  95.7948 264.3192 15.08840510104345,6917.879,95.438,540.642,538.846,0.0
49730.0,STARLINK-3249,PAYLOAD,2023-10-16 13:34:28,15.08838996,0.0001361,53.2157,127.8977,95.6535,264.4612,0.00016491,2.338e-05,0.0,0 STARLINK-3249,1 49730U 21115G   23289.56560750  .00002338  00000-0  16491-3 0  9991,2 49730  53.2157 127.8977 0001361  95.6535 264.4612 15.08838996103278,6917.883,95.438,540.69,538.807,0.0
49730.0,STARLINK-3249,PAYLOAD,2023-10-16 16:45:14,15.08841251,0.0001378,53.2152,127.303,96.3052,263.8097,0.00018927,2.726e-05,0.0,0 STARLINK-3249,1 49730U 21115G   23289.69808642  .00002726  00000-0  18927-3 0  9997,2 49730  53.2152 127.3030 0001378  96.3052 263.8097 15.08841251103298,6917.877,95.437,540.695,538.788,0.0
49730.0,STARLINK-3249,PAYLOAD,2023-10-17 13:25:15,15.08839711,0.0001353,53.215,123.4378,94.3331,265.7815,0.00024245,3.573e-05,0.0,0 STARLINK-3249,1 49730U 21115G   23290.55920784  .00003573  00000-0  24245-3 0  9997,2 49730  53.2150 123.4378 0001353  94.3331 265.7815 15.08839711103421,6917.881,95.438,540.682,538.81,0.0
49730.0,STARLINK-3249,PAYLOAD,2023-10-17 19:46:48,15.08840835,0.0001284,53.2148,122.2491,90.0528,270.0611,0.00024903,3.678e-05,0.0,0 STARLINK-3249,1 49730U 21115G   23290.82416722  .00003678  00000-0  24903-3 0  9996,2 49730  53.2148 122.2491 0001284  90.0528 270.0611 15.08840835103461,6917.878,95.438,540.631,538.855,0.0
49730.0,STARLINK-3249,PAYLOAD,2023-10-18 13:16:02,15.08840169,0.0001291,53.2146,118.9786,88.4579,271.6561,7.4248e-05,8.94e-06,0.0,0 STARLINK-3249,1 49730U 21115G   23291.55280642  .00000894  00000-0  74248-4 0  9992,2 49730  53.2146 118.9786 0001291  88.4579 271.6561 15.08840169104689,6917.88,95.438,540.638,538.852,0.0
49730.0,STARLINK-3249,PAYLOAD,2023-10-19 00:23:43,15.08850082,0.0001301,53.2158,116.8966,89.0906,271.0235,0.00017382,2.48e-05,0.0,0 STARLINK-3249,1 49730U 21115G   23292.01648013  .00002480  00000-0  17382-3 0  9992,2 49730  53.2158 116.8966 0001301  89.0906 271.0235 15.08850082104757,6917.85,95.437,540.615,538.815,0.0
49730.0,STARLINK-3249,PAYLOAD,2023-10-19 11:31:26,15.08840901,0.0001332,53.2148,114.8156,85.9057,274.2087,4.7025e-05,4.61e-06,0.0,0 STARLINK-3249,1 49730U 21115G   23292.48016480  .00000461  00000-0  47025-4 0  9995,2 49730  53.2148 114.8156 0001332  85.9057 274.2087 15.08840901104828,6917.878,95.437,540.664,538.821,0.0
49730.0,STARLINK-3249,PAYLOAD,2023-10-19 13:06:49,15.08840917,0.0001289,53.2149,114.5182,88.1391,271.9749,4.3413e-05,4.03e-06,0.0,0 STARLINK-3249,1 49730U 21115G   23292.54640456  .00000403  00000-0  43413-4 0  9991,2 49730  53.2149 114.5182 0001289  88.1391 271.9749 15.08840917103726,6917.878,95.437,540.634,538.851,0.0
49730.0,STARLINK-3249,PAYLOAD,2023-10-19 21:03:44,15.08846532,0.0001285,53.2157,113.031,85.158,274.9559,0.00011253,1.504e-05,0.0,0 STARLINK-3249,1 49730U 21115G   23292.87760123  .00001504  00000-0  11253-3 0  9990,2 49730  53.2157 113.0310 0001285  85.1580 274.9559 15.08846532103771,6917.86,95.437,540.614,538.836,0.0
49730.0,STARLINK-3249,PAYLOAD,2023-10-20 11:22:13,15.08831916,0.0001369,53.2161,110.3531,91.6778,268.4371,-5.8444e-05,-1.218e-05,0.0,0 STARLINK-3249,1 49730U 21115G   23293.47376998 -.00001218  00000-0 -58444-4 0  9998,2 49730  53.2161 110.3531 0001369  91.6778 268.4371 15.08831916104978,6917.905,95.438,540.717,538.823,0.0
49730.0,STARLINK-3249,PAYLOAD,2023-10-20 14:33:00,15.08833377,0.0001526,53.216,109.7586,84.4778,275.6388,-3.2389e-05,-8.03e-06,0.0,0 STARLINK-3249,1 49730U 21115G   23293.60625027 -.00000803  00000-0 -32389-4 0  9992,2 49730  53.2160 109.7586 0001526  84.4778 275.6388 15.08833377103884,6917.901,95.438,540.821,538.71,0.0
49730.0,STARLINK-3249,PAYLOAD,2023-10-21 04:51:28,15.08840816,0.0001476,53.2164,107.0822,89.3423,270.7738,9.1156e-05,1.163e-05,0.0,0 STARLINK-3249,1 49730U 21115G   23294.20240815  .00001163  00000-0  91156-4 0  9992,2 49730  53.2164 107.0822 0001476  89.3423 270.7738 15.08840816105082,6917.878,95.438,540.764,538.722,0.0
49730.0,STARLINK-3249,PAYLOAD,2023-10-21 20:45:18,15.08857067,0.0001318,53.2162,104.1093,88.7211,271.3932,0.00043963,6.719e-05,0.0,0 STARLINK-3249,1 49730U 21115G   23294.86480069  .00006719  00000-0  43963-3 0  9995,2 49730  53.2162 104.1093 0001318  88.7211 271.3932 15.08857067105181,6917.828,95.436,540.605,538.781,0.0
49730.0,STARLINK-3249,PAYLOAD,2023-10-22 04:42:15,15.08840411,0.0001531,53.2164,102.6226,91.5041,268.6127,0.00012754,1.742e-05,0.0,0 STARLINK-3249,1 49730U 21115G   23295.19600695  .00001742  00000-0  12754-3 0  9996,2 49730  53.2164 102.6226 0001531  91.5041 268.6127 15.08840411105230,6917.879,95.438,540.803,538.685,0.0
